STARLINK-31425          
1 59253U 24049Y   26068.26733679 -.00001731  00000+0 -53437-4 0  9997
2 59253  43.0035 145.7350 0000675 246.9018 113.1763 15.27567132112335
FLOCK 4G-8              
1 62613U 25009E   26068.72381419  .00013559  00000+0  50438-3 0  9996
2 62613  97.4045 151.2834 0003050 315.2538  44.8455 15.27623414 63721
